ONEWEB-0415             
1 51624U 22012C   26009.18607370 -.00000650  00000+0 -18977-2 0  9990
2 51624  87.8782  67.9641 0001524 107.7023 252.4271 13.10374137188465
ONEWEB-0416             
1 51625U 22012D   26009.19769918 -.00000261  00000+0 -78274-3 0  9994
2 51625  87.8784  67.9825 0001717 116.6715 243.4588 13.10376198188508
ONEWEB-0422             
1 51626U 22012E   26009.14113630  .00000043  00000+0  77880-4 0  9993
2 51626  87.9095  37.4628 0001641  71.6000 288.5310 13.17649241192867
ONEWEB-0423             
1 51627U 22012F   26009.13438652  .00000015  00000+0  45569-5 0  9996
2 51627  87.9095  37.4739 0001845  90.6058 269.5285 13.17650291192756
ONEWEB-0425             
1 51628U 22012G   26009.20766956  .00000274  00000+0  74924-3 0  9998
2 51628  87.8792  67.9537 0002146 102.4789 257.6579 13.10376359188507
ONEWEB-0428             
1 51629U 22012H   26009.18773287 -.00000572  00000+0 -16762-2 0  9999
2 51629  87.8785  67.9748 0001767  99.2444 260.8884 13.10374551188465
ONEWEB-0431             
1 51630U 22012J   26009.23408622  .00000412  00000+0  11451-2 0  9996
2 51630  87.8780  67.9468 0001106 106.5471 253.5778 13.10370365188527
ONEWEB-0434             
1 51631U 22012K   26009.21113154  .00000375  00000+0  10382-2 0  9998
2 51631  87.8782  67.9850 0002448 101.3788 258.7615 13.10376041188501
ONEWEB-0435             
1 51632U 22012L   26009.21929339  .00000604  00000+0  16941-2 0  9991
2 51632  87.8782  67.9735 0001601  87.5564 272.5747 13.10373565188497
ONEWEB-0436             
1 51633U 22012M   26009.12594764  .00000014  00000+0  29122-5 0  9995
2 51633  87.9094  37.4541 0001614  89.6838 270.4479 13.17650084192735
ONEWEB-0438             
1 51634U 22012N   26009.20268522 -.00000046  00000+0 -16698-3 0  9994
2 51634  87.8783  67.9778 0001946 102.7297 257.4048 13.10376153188528
ONEWEB-0439             
1 51635U 22012P   26009.20600564  .00000162  00000+0  42660-3 0  9996
2 51635  87.8785  67.9658 0001818  98.0435 262.0899 13.10375559188500
ONEWEB-0442             
1 51636U 22012Q   26009.11836127  .00000035  00000+0  56501-4 0  9992
2 51636  87.9083  37.5005 0002240 106.0251 254.1127 13.17648308192725
ONEWEB-0443             
1 51637U 22012R   26009.13776077  .00000060  00000+0  12222-3 0  9991
2 51637  87.9083  37.5006 0002083  90.6574 269.4796 13.17649500192779
ONEWEB-0444             
1 51638U 22012S   26009.19603794 -.00000349  00000+0 -10362-2 0  9997
2 51638  87.8785  67.9666 0001777  98.7374 261.3955 13.10375416188513
ONEWEB-0445             
1 51639U 22012T   26009.21762388  .00000737  00000+0  20740-2 0  9996
2 51639  87.8797  67.9337 0001790 107.4117 252.7206 13.10373294188526
ONEWEB-0446             
1 51640U 22012U   26009.19437247 -.00000399  00000+0 -11780-2 0  9998
2 51640  87.8784  67.9834 0001730 105.5525 254.5794 13.10375412188506
