[{"OBJECT_NAME":"ONEWEB-0415","OBJECT_ID":"2022-012C","EPOCH":"2026-01-09T04:27:56.767680","MEAN_MOTION":13.10374137,"ECCENTRICITY":0.00015248,"INCLINATION":87.8782,"RA_OF_ASC_NODE":67.9641,"ARG_OF_PERICENTER":107.7023,"MEAN_ANOMALY":252.4271,"EPHEMERIS_TYPE":0,"CLASSIFICATION_TYPE":"U","NORAD_CAT_ID":51624,"ELEMENT_SET_NO":999,"REV_AT_EPOCH":18846,"BSTAR":-0.0018977292,"MEAN_MOTION_DOT":-6.5e-6,"MEAN_MOTION_DDOT":0},{"OBJECT_NAME":"ONEWEB-0416","OBJECT_ID":"2022-012D","EPOCH":"2026-01-09T04:44:41.209152","MEAN_MOTION":13.10376198,"ECCENTRICITY":0.00017174,"INCLINATION":87.8784,"RA_OF_ASC_NODE":67.9825,"ARG_OF_PERICENTER":116.6715,"MEAN_ANOMALY":243.4588,"EPHEMERIS_TYPE":0,"CLASSIFICATION_TYPE":"U","NORAD_CAT_ID":51625,"ELEMENT_SET_NO":999,"REV_AT_EPOCH":18850,"BSTAR":-0.00078274147,"MEAN_MOTION_DOT":-2.61e-6,"MEAN_MOTION_DDOT":0},{"OBJECT_NAME":"ONEWEB-0422","OBJECT_ID":"2022-012E","EPOCH":"2026-01-09T03:23:14.176320","MEAN_MOTION":13.17649241,"ECCENTRICITY":0.00016411,"INCLINATION":87.9095,"RA_OF_ASC_NODE":37.4628,"ARG_OF_PERICENTER":71.6,"MEAN_ANOMALY":288.531,"EPHEMERIS_TYPE":0,"CLASSIFICATION_TYPE":"U","NORAD_CAT_ID":51626,"ELEMENT_SET_NO":999,"REV_AT_EPOCH":19286,"BSTAR":7.7879677e-5,"MEAN_MOTION_DOT":4.3e-7,"MEAN_MOTION_DDOT":0},{"OBJECT_NAME":"ONEWEB-0423","OBJECT_ID":"2022-012F","EPOCH":"2026-01-09T03:13:30.995328","MEAN_MOTION":13.17650291,"ECCENTRICITY":0.00018453,"INCLINATION":87.9095,"RA_OF_ASC_NODE":37.4739,"ARG_OF_PERICENTER":90.6058,"MEAN_ANOMALY":269.5285,"EPHEMERIS_TYPE":0,"CLASSIFICATION_TYPE":"U","NORAD_CAT_ID":51627,"ELEMENT_SET_NO":999,"REV_AT_EPOCH":19275,"BSTAR":4.556879e-6,"MEAN_MOTION_DOT":1.5e-7,"MEAN_MOTION_DDOT":0},{"OBJECT_NAME":"ONEWEB-0425","OBJECT_ID":"2022-012G","EPOCH":"2026-01-09T04:59:02.649984","MEAN_MOTION":13.10376359,"ECCENTRICITY":0.0002146,"INCLINATION":87.8792,"RA_OF_ASC_NODE":67.9537,"ARG_OF_PERICENTER":102.4789,"MEAN_ANOMALY":257.6579,"EPHEMERIS_TYPE":0,"CLASSIFICATION_TYPE":"U","NORAD_CAT_ID":51628,"ELEMENT_SET_NO":999,"REV_AT_EPOCH":18850,"BSTAR":0.00074923679,"MEAN_MOTION_DOT":2.74e-6,"MEAN_MOTION_DDOT":0},{"OBJECT_NAME":"ONEWEB-0428","OBJECT_ID":"2022-012H","EPOCH":"2026-01-09T04:30:20.119968","MEAN_MOTION":13.10374551,"ECCENTRICITY":0.00017674,"INCLINATION":87.8785,"RA_OF_ASC_NODE":67.9748,"ARG_OF_PERICENTER":99.2444,"MEAN_ANOMALY":260.8884,"EPHEMERIS_TYPE":0,"CLASSIFICATION_TYPE":"U","NORAD_CAT_ID":51629,"ELEMENT_SET_NO":999,"REV_AT_EPOCH":18846,"BSTAR":-0.0016761713,"MEAN_MOTION_DOT":-5.72e-6,"MEAN_MOTION_DDOT":0},{"OBJECT_NAME":"ONEWEB-0431","OBJECT_ID":"2022-012J","EPOCH":"2026-01-09T05:37:05.049408","MEAN_MOTION":13.10370365,"ECCENTRICITY":0.00011068,"INCLINATION":87.878,"RA_OF_ASC_NODE":67.9468,"ARG_OF_PERICENTER":106.5471,"MEAN_ANOMALY":253.5778,"EPHEMERIS_TYPE":0,"CLASSIFICATION_TYPE":"U","NORAD_CAT_ID":51630,"ELEMENT_SET_NO":999,"REV_AT_EPOCH":18852,"BSTAR":0.0011450618,"MEAN_MOTION_DOT":4.12e-6,"MEAN_MOTION_DDOT":0},{"OBJECT_NAME":"ONEWEB-0434","OBJECT_ID":"2022-012K","EPOCH":"2026-01-09T05:04:01.765056","MEAN_MOTION":13.10376041,"ECCENTRICITY":0.00024488,"INCLINATION":87.8782,"RA_OF_ASC_NODE":67.985,"ARG_OF_PERICENTER":101.3788,"MEAN_ANOMALY":258.7615,"EPHEMERIS_TYPE":0,"CLASSIFICATION_TYPE":"U","NORAD_CAT_ID":51631,"ELEMENT_SET_NO":999,"REV_AT_EPOCH":18850,"BSTAR":0.0010381736,"MEAN_MOTION_DOT":3.75e-6,"MEAN_MOTION_DDOT":0},{"OBJECT_NAME":"ONEWEB-0435","OBJECT_ID":"2022-012L","EPOCH":"2026-01-09T05:15:46.948896","MEAN_MOTION":13.10373565,"ECCENTRICITY":0.00016016,"INCLINATION":87.8782,"RA_OF_ASC_NODE":67.9735,"ARG_OF_PERICENTER":87.5564,"MEAN_ANOMALY":272.5747,"EPHEMERIS_TYPE":0,"CLASSIFICATION_TYPE":"U","NORAD_CAT_ID":51632,"ELEMENT_SET_NO":999,"REV_AT_EPOCH":18849,"BSTAR":0.0016941282,"MEAN_MOTION_DOT":6.04e-6,"MEAN_MOTION_DDOT":0},{"OBJECT_NAME":"ONEWEB-0436","OBJECT_ID":"2022-012M","EPOCH":"2026-01-09T03:01:21.876096","MEAN_MOTION":13.17650084,"ECCENTRICITY":0.00016145,"INCLINATION":87.9094,"RA_OF_ASC_NODE":37.4541,"ARG_OF_PERICENTER":89.6838,"MEAN_ANOMALY":270.4479,"EPHEMERIS_TYPE":0,"CLASSIFICATION_TYPE":"U","NORAD_CAT_ID":51633,"ELEMENT_SET_NO":999,"REV_AT_EPOCH":19273,"BSTAR":2.912212e-6,"MEAN_MOTION_DOT":1.4e-7,"MEAN_MOTION_DDOT":0},{"OBJECT_NAME":"ONEWEB-0438","OBJECT_ID":"2022-012N","EPOCH":"2026-01-09T04:51:52.003008","MEAN_MOTION":13.10376153,"ECCENTRICITY":0.00019468,"INCLINATION":87.8783,"RA_OF_ASC_NODE":67.9778,"ARG_OF_PERICENTER":102.7297,"MEAN_ANOMALY":257.4048,"EPHEMERIS_TYPE":0,"CLASSIFICATION_TYPE":"U","NORAD_CAT_ID":51634,"ELEMENT_SET_NO":999,"REV_AT_EPOCH":18852,"BSTAR":-0.0001669841,"MEAN_MOTION_DOT":-4.6e-7,"MEAN_MOTION_DDOT":0},{"OBJECT_NAME":"ONEWEB-0439","OBJECT_ID":"2022-012P","EPOCH":"2026-01-09T04:56:38.887296","MEAN_MOTION":13.10375559,"ECCENTRICITY":0.00018181,"INCLINATION":87.8785,"RA_OF_ASC_NODE":67.9658,"ARG_OF_PERICENTER":98.0435,"MEAN_ANOMALY":262.0899,"EPHEMERIS_TYPE":0,"CLASSIFICATION_TYPE":"U","NORAD_CAT_ID":51635,"ELEMENT_SET_NO":999,"REV_AT_EPOCH":18850,"BSTAR":0.00042660163,"MEAN_MOTION_DOT":1.62e-6,"MEAN_MOTION_DDOT":0},{"OBJECT_NAME":"ONEWEB-0442","OBJECT_ID":"2022-012Q","EPOCH":"2026-01-09T02:50:26.413728","MEAN_MOTION":13.17648308,"ECCENTRICITY":0.00022401,"INCLINATION":87.9083,"RA_OF_ASC_NODE":37.5005,"ARG_OF_PERICENTER":106.0251,"MEAN_ANOMALY":254.1127,"EPHEMERIS_TYPE":0,"CLASSIFICATION_TYPE":"U","NORAD_CAT_ID":51636,"ELEMENT_SET_NO":999,"REV_AT_EPOCH":19272,"BSTAR":5.6501124e-5,"MEAN_MOTION_DOT":3.5e-7,"MEAN_MOTION_DDOT":0},{"OBJECT_NAME":"ONEWEB-0443","OBJECT_ID":"2022-012R","EPOCH":"2026-01-09T03:18:22.530528","MEAN_MOTION":13.176495,"ECCENTRICITY":0.00020837,"INCLINATION":87.9083,"RA_OF_ASC_NODE":37.5006,"ARG_OF_PERICENTER":90.6574,"MEAN_ANOMALY":269.4796,"EPHEMERIS_TYPE":0,"CLASSIFICATION_TYPE":"U","NORAD_CAT_ID":51637,"ELEMENT_SET_NO":999,"REV_AT_EPOCH":19277,"BSTAR":0.00012221518,"MEAN_MOTION_DOT":6.0e-7,"MEAN_MOTION_DDOT":0},{"OBJECT_NAME":"ONEWEB-0444","OBJECT_ID":"2022-012S","EPOCH":"2026-01-09T04:42:17.678016","MEAN_MOTION":13.10375416,"ECCENTRICITY":0.00017776,"INCLINATION":87.8785,"RA_OF_ASC_NODE":67.9666,"ARG_OF_PERICENTER":98.7374,"MEAN_ANOMALY":261.3955,"EPHEMERIS_TYPE":0,"CLASSIFICATION_TYPE":"U","NORAD_CAT_ID":51638,"ELEMENT_SET_NO":999,"REV_AT_EPOCH":18851,"BSTAR":-0.001036165,"MEAN_MOTION_DOT":-3.49e-6,"MEAN_MOTION_DDOT":0},{"OBJECT_NAME":"ONEWEB-0445","OBJECT_ID":"2022-012T","EPOCH":"2026-01-09T05:13:22.703232","MEAN_MOTION":13.10373294,"ECCENTRICITY":0.00017905,"INCLINATION":87.8797,"RA_OF_ASC_NODE":67.9337,"ARG_OF_PERICENTER":107.4117,"MEAN_ANOMALY":252.7206,"EPHEMERIS_TYPE":0,"CLASSIFICATION_TYPE":"U","NORAD_CAT_ID":51639,"ELEMENT_SET_NO":999,"REV_AT_EPOCH":18852,"BSTAR":0.0020739789,"MEAN_MOTION_DOT":7.37e-6,"MEAN_MOTION_DDOT":0},{"OBJECT_NAME":"ONEWEB-0446","OBJECT_ID":"2022-012U","EPOCH":"2026-01-09T04:39:53.781408","MEAN_MOTION":13.10375412,"ECCENTRICITY":0.00017303,"INCLINATION":87.8784,"RA_OF_ASC_NODE":67.9834,"ARG_OF_PERICENTER":105.5525,"MEAN_ANOMALY":254.5794,"EPHEMERIS_TYPE":0,"CLASSIFICATION_TYPE":"U","NORAD_CAT_ID":51640,"ELEMENT_SET_NO":999,"REV_AT_EPOCH":18850,"BSTAR":-0.0011780393,"MEAN_MOTION_DOT":-3.99e-6,"MEAN_MOTION_DDOT":0}]
